GLOBALSTAR M024 [-]     
1 25883U 99043A   24009.63309394 -.00000152  00000+0 -31102-2 0  9991
2 25883  52.0010 124.1830 0000605 345.3220 117.7984 11.10155031 56607
GLOBALSTAR M027 [-]     
1 25884U 99043B   24009.61334492 -.00000099  00000+0 -13616-2 0  9997
2 25884  52.0173 187.3524 0020496 221.7314 138.1916 11.04367192 83282
GLOBALSTAR M054 [-]     
1 25885U 99043C   24009.43490505 -.00000074  00000+0 -62603-4 0  9991
2 25885  52.0160  43.1083 0004070 351.5657 117.3579 11.39202630 59246
GLOBALSTAR M053 [-]     
1 25886U 99043D   24009.04996461 -.00000069  00000+0 -12739-4 0  9990
2 25886  52.0015 321.9958 0003116 278.8099 162.5127 11.27652846 60209
GLOBALSTAR M058 [-]     
1 25907U 99049A   24009.56499708 -.00000062  00000+0  30550-3 0  9991
2 25907  51.9951  70.0194 0001919 348.3885  11.6905 11.93172203478915
GLOBALSTAR M050 [-]     
1 25908U 99049B   24009.63713000 -.00000061  00000+0  30500-3 0  9998
2 25908  51.9989 116.6902 0009612  71.5496  38.0927 12.07426947 84825
GLOBALSTAR M033 [-]     
1 25909U 99049C   24009.22359506 -.00000120  00000+0 -27684-3 0  9997
2 25909  51.9932  25.9190 0011392 272.2468  87.7074 12.20261413104379
GLOBALSTAR M055 [-]     
1 25910U 99049D   24009.53625410 -.00000044  00000+0  43224-3 0  9995
2 25910  52.0030  61.3167 0007511 123.8753 236.2814 12.29393398103757
